{
  "norad_id": 53430,
  "name": "STARLINK-4538",
  "history": [
    {
      "epoch": "2026-03-28T12:06:14.245056Z",
      "apogee_km": 540.6721738451133,
      "perigee_km": 538.8126478594759,
      "latitude_deg": -1.1149657268974326e-05,
      "longitude_deg": 12.21350968977426,
      "height_km": 540.6198100295287,
      "semi_major_axis_km": 6917.879410852294,
      "eccentricity": 0.0001344,
      "inclination_deg": 53.2198,
      "raan_deg": 19.6967,
      "arg_perigee_deg": 88.8545,
      "mean_anomaly_deg": 271.2601,
      "mean_motion_rev_day": 15.0884032
    },
    {
      "epoch": "2026-03-29T02:24:43.116192Z",
      "apogee_km": 540.7828072925804,
      "perigee_km": 538.7503272245203,
      "latitude_deg": -1.1222595152115808e-06,
      "longitude_deg": 154.33221111084904,
      "height_km": 540.8382901244586,
      "semi_major_axis_km": 6917.90356725855,
      "eccentricity": 0.0001469,
      "inclination_deg": 53.2207,
      "raan_deg": 17.0233,
      "arg_perigee_deg": 99.9613,
      "mean_anomaly_deg": 260.1545,
      "mean_motion_rev_day": 15.08832417
    },
    {
      "epoch": "2026-03-30T03:50:52.813536Z",
      "apogee_km": 540.7436224365711,
      "perigee_km": 538.7623387461299,
      "latitude_deg": 3.37396539413966e-05,
      "longitude_deg": 126.9903115591161,
      "height_km": 540.8290276884059,
      "semi_major_axis_km": 6917.889980591351,
      "eccentricity": 0.0001432,
      "inclination_deg": 53.2207,
      "raan_deg": 12.2664,
      "arg_perigee_deg": 100.4727,
      "mean_anomaly_deg": 259.6427,
      "mean_motion_rev_day": 15.08836862
    },
    {
      "epoch": "2026-03-30T11:47:47.838624Z",
      "apogee_km": 540.747273055772,
      "perigee_km": 538.6887961116818,
      "latitude_deg": 4.666764482958944e-05,
      "longitude_deg": 5.943812207614138,
      "height_km": 540.3872096227965,
      "semi_major_axis_km": 6917.855034583727,
      "eccentricity": 0.00014878,
      "inclination_deg": 53.2209,
      "raan_deg": 10.7756,
      "arg_perigee_deg": 77.2713,
      "mean_anomaly_deg": 282.8446,
      "mean_motion_rev_day": 15.08848295
    },
    {
      "epoch": "2026-03-31T11:38:35.760768Z",
      "apogee_km": 540.7892421588695,
      "perigee_km": 538.6974135053406,
      "latitude_deg": -2.4593172724225984e-05,
      "longitude_deg": 2.8061379858875477,
      "height_km": 540.5228935529236,
      "semi_major_axis_km": 6917.880327832105,
      "eccentricity": 0.00015119,
      "inclination_deg": 53.2193,
      "raan_deg": 6.317,
      "arg_perigee_deg": 83.6241,
      "mean_anomaly_deg": 276.4923,
      "mean_motion_rev_day": 15.0884002
    },
    {
      "epoch": "2026-04-01T11:29:22.926912Z",
      "apogee_km": 540.6991442450453,
      "perigee_km": 538.7718249708332,
      "latitude_deg": -2.0516076944060598e-05,
      "longitude_deg": -0.3312215574795315,
      "height_km": 540.5542406792282,
      "semi_major_axis_km": 6917.8724846079385,
      "eccentricity": 0.0001393,
      "inclination_deg": 53.2196,
      "raan_deg": 1.8555,
      "arg_perigee_deg": 85.408,
      "mean_anomaly_deg": 274.7071,
      "mean_motion_rev_day": 15.08842586
    },
    {
      "epoch": "2026-04-02T20:52:28.471008Z",
      "apogee_km": 540.6733890748046,
      "perigee_km": 538.8207797170026,
      "latitude_deg": -2.3994225094809085e-05,
      "longitude_deg": -148.7212913238512,
      "height_km": 540.7015575796,
      "semi_major_axis_km": 6917.884084395903,
      "eccentricity": 0.0001339,
      "inclination_deg": 53.219,
      "raan_deg": 355.6096,
      "arg_perigee_deg": 93.6247,
      "mean_anomaly_deg": 266.4898,
      "mean_motion_rev_day": 15.08838791
    },
    {
      "epoch": "2026-04-02T22:27:51.602688Z",
      "apogee_km": 540.6728426615755,
      "perigee_km": 538.8199567717957,
      "latitude_deg": 5.25202677540194e-05,
      "longitude_deg": -172.93020546456876,
      "height_km": 540.6979928201343,
      "semi_major_axis_km": 6917.883399716686,
      "eccentricity": 0.00013392,
      "inclination_deg": 53.2189,
      "raan_deg": 355.3123,
      "arg_perigee_deg": 93.4471,
      "mean_anomaly_deg": 266.6675,
      "mean_motion_rev_day": 15.08839015
    },
    {
      "epoch": "2026-04-03T20:43:16.569408Z",
      "apogee_km": 540.7270785101291,
      "perigee_km": 538.8011348420305,
      "latitude_deg": 4.2554032708483985e-05,
      "longitude_deg": -151.86010074309135,
      "height_km": 540.7076045597468,
      "semi_major_axis_km": 6917.9011066760795,
      "eccentricity": 0.0001392,
      "inclination_deg": 53.2186,
      "raan_deg": 351.1505,
      "arg_perigee_deg": 92.8402,
      "mean_anomaly_deg": 267.275,
      "mean_motion_rev_day": 15.08833222
    },
    {
      "epoch": "2026-04-03T22:18:39.639744Z",
      "apogee_km": 540.6329141037195,
      "perigee_km": 538.8908488073912,
      "latitude_deg": 3.179048088826788e-05,
      "longitude_deg": -176.06912352480907,
      "height_km": 540.8306139699512,
      "semi_major_axis_km": 6917.898881455555,
      "eccentricity": 0.00012591,
      "inclination_deg": 53.2186,
      "raan_deg": 350.8529,
      "arg_perigee_deg": 101.4382,
      "mean_anomaly_deg": 258.6752,
      "mean_motion_rev_day": 15.0883395
    },
    {
      "epoch": "2026-04-05T09:17:05.174880Z",
      "apogee_km": 540.4789119165061,
      "perigee_km": 538.8034260439781,
      "latitude_deg": 3.8278258449832995e-06,
      "longitude_deg": 11.347136360744804,
      "height_km": 540.4392633143665,
      "semi_major_axis_km": 6917.778168980241,
      "eccentricity": 0.0001211,
      "inclination_deg": 53.2184,
      "raan_deg": 344.3119,
      "arg_perigee_deg": 83.2856,
      "mean_anomaly_deg": 276.8274,
      "mean_motion_rev_day": 15.08873443
    },
    {
      "epoch": "2026-04-05T20:24:50.766048Z",
      "apogee_km": 540.6682527991316,
      "perigee_km": 538.9429179183435,
      "latitude_deg": 3.0036133107198903e-05,
      "longitude_deg": -158.13167356237923,
      "height_km": 541.0107395437124,
      "semi_major_axis_km": 6917.942585358737,
      "eccentricity": 0.0001247,
      "inclination_deg": 53.2186,
      "raan_deg": 342.2301,
      "arg_perigee_deg": 110.9941,
      "mean_anomaly_deg": 249.1185,
      "mean_motion_rev_day": 15.08819652
    },
    {
      "epoch": "2026-04-05T22:00:13.909824Z",
      "apogee_km": 540.6640321605782,
      "perigee_km": 538.9425718958228,
      "latitude_deg": -4.260920984673118e-05,
      "longitude_deg": 177.65975069623127,
      "height_km": 541.0046432081849,
      "semi_major_axis_km": 6917.940302028201,
      "eccentricity": 0.00012442,
      "inclination_deg": 53.2188,
      "raan_deg": 341.9333,
      "arg_perigee_deg": 110.7695,
      "mean_anomaly_deg": 249.343,
      "mean_motion_rev_day": 15.08820399
    },
    {
      "epoch": "2026-04-07T08:58:42.131136Z",
      "apogee_km": 540.6376510105483,
      "perigee_km": 538.7840828530816,
      "latitude_deg": -1.7981928218950087e-05,
      "longitude_deg": 5.063824559642027,
      "height_km": 540.8741690689038,
      "semi_major_axis_km": 6917.847866931815,
      "eccentricity": 0.00013397,
      "inclination_deg": 53.2192,
      "raan_deg": 335.3913,
      "arg_perigee_deg": 106.7629,
      "mean_anomaly_deg": 253.351,
      "mean_motion_rev_day": 15.0885064
    },
    {
      "epoch": "2026-04-07T21:41:47.645088Z",
      "apogee_km": 540.6054582070183,
      "perigee_km": 538.9645271103609,
      "latitude_deg": -6.818515978356158e-05,
      "longitude_deg": 171.38909303438422,
      "height_km": 540.9272763046602,
      "semi_major_axis_km": 6917.921992658689,
      "eccentricity": 0.0001186,
      "inclination_deg": 53.2184,
      "raan_deg": 333.0119,
      "arg_perigee_deg": 107.4589,
      "mean_anomaly_deg": 252.6532,
      "mean_motion_rev_day": 15.08826389
    },
    {
      "epoch": "2026-04-08T08:49:29.438112Z",
      "apogee_km": 540.562081390015,
      "perigee_km": 538.9610029514151,
      "latitude_deg": 4.006333834386462e-05,
      "longitude_deg": 1.9260124509144012,
      "height_km": 540.8816282802406,
      "semi_major_axis_km": 6917.898542170715,
      "eccentricity": 0.00011572,
      "inclination_deg": 53.218,
      "raan_deg": 330.9299,
      "arg_perigee_deg": 106.248,
      "mean_anomaly_deg": 253.864,
      "mean_motion_rev_day": 15.08834061
    },
    {
      "epoch": "2026-04-09T21:23:21.728544Z",
      "apogee_km": 540.5693805106866,
      "perigee_km": 538.9132404431593,
      "latitude_deg": -5.400307787473258e-05,
      "longitude_deg": 165.1171094789795,
      "height_km": 540.8519393157426,
      "semi_major_axis_km": 6917.878310476923,
      "eccentricity": 0.0001197,
      "inclination_deg": 53.2177,
      "raan_deg": 324.0906,
      "arg_perigee_deg": 105.0205,
      "mean_anomaly_deg": 255.0919,
      "mean_motion_rev_day": 15.0884068
    },
    {
      "epoch": "2026-04-10T00:34:07.965984Z",
      "apogee_km": 540.5659717817371,
      "perigee_km": 538.9083107800034,
      "latitude_deg": 1.1219958265685095e-05,
      "longitude_deg": 116.69902374804315,
      "height_km": 540.8463274459922,
      "semi_major_axis_km": 6917.87414128087,
      "eccentricity": 0.00011981,
      "inclination_deg": 53.2175,
      "raan_deg": 323.4957,
      "arg_perigee_deg": 104.9055,
      "mean_anomaly_deg": 255.207,
      "mean_motion_rev_day": 15.08842044
    },
    {
      "epoch": "2026-04-11T21:04:56.366688Z",
      "apogee_km": 540.5566165872606,
      "perigee_km": 538.9668834545046,
      "latitude_deg": 3.820825766627594e-05,
      "longitude_deg": 158.8432683078614,
      "height_km": 540.7676389394195,
      "semi_major_axis_km": 6917.898750020882,
      "eccentricity": 0.0001149,
      "inclination_deg": 53.2153,
      "raan_deg": 315.1697,
      "arg_perigee_deg": 97.9627,
      "mean_anomaly_deg": 262.1496,
      "mean_motion_rev_day": 15.08833993
    }
  ]
}